[{"OBJECT_NAME":"STARLINK-32684","OBJECT_ID":"2024-229C","EPOCH":"2026-03-09T22:40:51.670272","MEAN_MOTION":15.27598065,"ECCENTRICITY":0.0002292,"INCLINATION":43.0032,"RA_OF_ASC_NODE":268.9966,"ARG_OF_PERICENTER":265.5822,"MEAN_ANOMALY":94.4768,"EPHEMERIS_TYPE":0,"CLASSIFICATION_TYPE":"U","NORAD_CAT_ID":62194,"ELEMENT_SET_NO":999,"REV_AT_EPOCH":7178,"BSTAR":0.001086571,"MEAN_MOTION_DOT":0.00029776,"MEAN_MOTION_DDOT":0},{"OBJECT_NAME":"POEM","OBJECT_ID":"2022-072E","EPOCH":"2026-03-08T08:06:01.299456","MEAN_MOTION":15.22764653,"ECCENTRICITY":0.00236837,"INCLINATION":9.9515,"RA_OF_ASC_NODE":116.6548,"ARG_OF_PERICENTER":142.2805,"MEAN_ANOMALY":217.9074,"EPHEMERIS_TYPE":0,"CLASSIFICATION_TYPE":"U","NORAD_CAT_ID":52939,"ELEMENT_SET_NO":999,"REV_AT_EPOCH":20410,"BSTAR":0.00045784559,"MEAN_MOTION_DOT":0.00012084,"MEAN_MOTION_DDOT":0}]
